{
    "links": {
        "self": "http://www.neowsapp.com/rest/v1/neo/3548242?api_key=iIulBulltgU6a56xZRHN4H3l9WmuAYTsLGpBGhQ2"
    },
    "id": "3548242",
    "neo_reference_id": "3548242",
    "name": "(2010 TS19)",
    "designation": "2010 TS19",
    "nasa_jpl_url": "http://ssd.jpl.nasa.gov/sbdb.cgi?sstr=3548242",
    "absolute_magnitude_h": 25.8,
    "estimated_diameter": {
        "kilometers": {
            "estimated_diameter_min": 0.0183888672,
            "estimated_diameter_max": 0.0411187571
        },
        "meters": {
            "estimated_diameter_min": 18.388867207,
            "estimated_diameter_max": 41.1187571041
        },
        "miles": {
            "estimated_diameter_min": 0.0114263088,
            "estimated_diameter_max": 0.0255500032
        },
        "feet": {
            "estimated_diameter_min": 60.3309310875,
            "estimated_diameter_max": 134.9040630575
        }
    },
    "is_potentially_hazardous_asteroid": false,
    "close_approach_data": [
        {
            "close_approach_date": "2010-10-10",
            "close_approach_date_full": "2010-Oct-10 04:34",
            "epoch_date_close_approach": 1286685240000,
            "relative_velocity": {
                "kilometers_per_second": "18.1530668029",
                "kilometers_per_hour": "65351.0404902982",
                "miles_per_hour": "40606.5951313189"
            },
            "miss_distance": {
                "astronomical": "0.0095007049",
                "lunar": "3.6957742061",
                "kilometers": "1421285.216538563",
                "miles": "883145.6815476494"
            },
            "orbiting_body": "Earth"
        },
        {
            "close_approach_date": "2010-11-05",
            "close_approach_date_full": "2010-Nov-05 07:40",
            "epoch_date_close_approach": 1288942800000,
            "relative_velocity": {
                "kilometers_per_second": "17.5171356275",
                "kilometers_per_hour": "63061.688259167",
                "miles_per_hour": "39184.0806852585"
            },
            "miss_distance": {
                "astronomical": "0.1138018565",
                "lunar": "44.2689221785",
                "kilometers": "17024515.334445655",
                "miles": "10578543.295253839"
            },
            "orbiting_body": "Venus"
        }
    ],
    "orbital_data": {
        "orbit_id": "8",
        "orbit_determination_date": "2019-07-16 06:14:06",
        "first_observation_date": "2010-10-06",
        "last_observation_date": "2010-10-09",
        "data_arc_in_days": 3,
        "observations_used": 43,
        "orbit_uncertainty": "8",
        "minimum_orbit_intersection": ".0028696",
        "jupiter_tisserand_invariant": "3.130",
        "epoch_osculation": "2455476.5",
        "eccentricity": ".700207188635998",
        "semi_major_axis": "2.404855262744353",
        "inclination": "5.636308917052208",
        "ascending_node_longitude": "195.6612683502956",
        "orbital_period": "1362.171663996779",
        "perihelion_distance": ".7209583201416454",
        "perihelion_argument": "252.7399296647823",
        "aphelion_distance": "4.088752205347061",
        "perihelion_time": "2455522.657455151340",
        "mean_anomaly": "347.8013290881951",
        "mean_motion": ".2642838707595164",
        "equinox": "J2000",
        "orbit_class": {
            "orbit_class_type": "APO",
            "orbit_class_description": "Near-Earth asteroid orbits which cross the Earth’s orbit similar to that of 1862 Apollo",
            "orbit_class_range": "a (semi-major axis) > 1.0 AU; q (perihelion) < 1.017 AU"
        }
    },
    "is_sentry_object": false
}